{"type":"FeatureCollection","features":[{"type":"Feature","properties":{"line":"BP","color":"#5b544a"},"geometry":{"type":"LineString","coordinates":[[103.74423,1.38537],[103.74532,1.3803],[103.74908,1.3786],[103.75374,1.37668],[103.75806,1.37862],[103.76154,1.379],[103.76669,1.37775],[103.77129,1.37614],[103.77267,1.38002],[103.77083,1.38452],[103.76962,1.38777],[103.76452,1.3867],[103.76239,1.38269],[103.76154,1.379]]}},{"type":"Feature","properties":{"line":"CC","color":"#f79500"},"geometry":{"type":"LineString","coordinates":[[103.84596,1.29911],[103.85067,1.29686],[103.85508,1.29366],[103.86062,1.29344],[103.86364,1.29977],[103.87534,1.30281],[103.88253,1.3062],[103.88906,1.30855],[103.89266,1.31768],[103.88984,1.32611],[103.88839,1.33514],[103.88018,1.3425],[103.87317,1.35017],[103.86415,1.35161],[103.84864,1.35108],[103.83942,1.34871],[103.83985,1.33746],[103.83069,1.33373],[103.8155,1.3223],[103.80738,1.31744],[103.7964,1.31224],[103.79048,1.30693],[103.78746,1.29976],[103.78457,1.29353],[103.78175,1.28257],[103.79135,1.27621],[103.80263,1.27225],[103.80976,1.27071],[103.82153,1.26539],[103.83111,1.27],[103.83667,1.27278],[103.84722,1.27333],[103.85512,1.2758],[103.85908,1.28187]]}},{"type":"Feature","properties":{"line":"CE","color":"#f79500"},"geometry":{"type":"LineString","coordinates":[[103.85908,1.28187],[103.85512,1.2758]]}},{"type":"Feature","properties":{"line":"CG","color":"#009645"},"geometry":{"type":"LineString","coordinates":[[103.96196,1.33497],[103.98788,1.35748]]}},{"type":"Feature","properties":{"line":"CP","color":"#97c616"},"geometry":{"type":"LineString","coordinates":[[103.94928,1.37304],[103.93806,1.38389],[103.91614,1.39452],[103.90207,1.40455]]}},{"type":"Feature","properties":{"line":"CR","color":"#97c616"},"geometry":{"type":"LineString","coordinates":[[103.99278,1.32444],[104.00306,1.37],[103.97194,1.37194],[103.96111,1.36611],[103.94928,1.37304],[103.93778,1.36917],[103.89889,1.36222],[103.89238,1.37129],[103.87361,1.37056],[103.86333,1.37],[103.85017,1.36962],[103.84361,1.36556],[103.83289,1.36328],[103.79444,1.34083],[103.7834,1.33566],[103.77694,1.32833],[103.76519,1.31512],[103.75778,1.31083],[103.73917,1.32722],[103.71028,1.31306],[103.66053,1.31947]]}},{"type":"Feature","properties":{"line":"DT","color":"#0055b8"},"geometry":{"type":"LineString","coordinates":[[103.76154,1.379],[103.76444,1.36982],[103.76742,1.36234],[103.76912,1.3546],[103.77579,1.34122],[103.7834,1.33566],[103.79691,1.33086],[103.80776,1.32556],[103.8155,1.3223],[103.8258,1.3197],[103.83785,1.31316],[103.84915,1.30691],[103.85277,1.30385],[103.85642,1.29989],[103.86062,1.29344],[103.85908,1.28187],[103.85284,1.27945],[103.84865,1.28207],[103.84429,1.28429],[103.84433,1.29248],[103.85035,1.29892],[103.8553,1.30517],[103.86298,1.31367],[103.87162,1.3213],[103.88325,1.32688],[103.88984,1.32611],[103.89923,1.32997],[103.90846,1.33497],[103.91798,1.33474],[103.93223,1.33661],[103.93844,1.34552],[103.94408,1.35423],[103.95463,1.35619],[103.96147,1.34174],[103.96196,1.33497],[103.965,1.32889],[103.95694,1.32028]]}},{"type":"Feature","properties":{"line":"EW","color":"#009645"},"geometry":{"type":"LineString","coordinates":[[103.94928,1.37304],[103.94408,1.35423],[103.95338,1.3432],[103.94635,1.32719],[103.92998,1.32398],[103.91295,1.32104],[103.90323,1.31978],[103.89266,1.31768],[103.88291,1.31643],[103.87139,1.31149],[103.86277,1.30738],[103.85642,1.29989],[103.85259,1.29294],[103.85146,1.28413],[103.84573,1.27656],[103.83924,1.28082],[103.82745,1.2861],[103.81674,1.28963],[103.80608,1.29455],[103.79823,1.3025],[103.79048,1.30693],[103.77864,1.31141],[103.76519,1.31512],[103.74213,1.33327],[103.7326,1.34235],[103.72095,1.34426],[103.70534,1.33835],[103.69732,1.33759],[103.67837,1.32772],[103.66053,1.31947],[103.64908,1.32103],[103.63962,1.32999],[103.63699,1.34088]]}},{"type":"Feature","properties":{"line":"JE","color":"#0099aa"},"geometry":{"type":"LineString","coordinates":[[103.73333,1.35722],[103.73667,1.35222],[103.73972,1.34556],[103.7425,1.33972],[103.74213,1.33327],[103.74611,1.32611],[103.745,1.32]]}},{"type":"Feature","properties":{"line":"JS","color":"#0099aa"},"geometry":{"type":"LineString","coordinates":[[103.74423,1.38537],[103.73944,1.37889],[103.73,1.36639],[103.72583,1.35806],[103.71389,1.35306],[103.70833,1.34917],[103.70254,1.34542],[103.70534,1.33835],[103.70861,1.33278],[103.70917,1.32528],[103.71028,1.31861],[103.71028,1.31306]]}},{"type":"Feature","properties":{"line":"JW","color":"#0099aa"},"geometry":{"type":"LineString","coordinates":[[103.69806,1.34833],[103.69194,1.35056],[103.68667,1.35361],[103.68083,1.34833],[103.67861,1.34333]]}},{"type":"Feature","properties":{"line":"NE","color":"#9f4c9c"},"geometry":{"type":"LineString","coordinates":[[103.82153,1.26539],[103.83924,1.28082],[103.84429,1.28429],[103.84656,1.28839],[103.84596,1.29911],[103.84915,1.30691],[103.85348,1.31191],[103.86157,1.31934],[103.86906,1.33138],[103.87082,1.33919],[103.87317,1.35017],[103.88506,1.36018],[103.89238,1.37129],[103.89312,1.38287],[103.89548,1.39169],[103.90207,1.40455],[103.91017,1.41493]]}},{"type":"Feature","properties":{"line":"NS","color":"#d42e12"},"geometry":{"type":"LineString","coordinates":[[103.74213,1.33327],[103.74957,1.34903],[103.75179,1.35861],[103.74944,1.36861],[103.74423,1.38537],[103.74741,1.39754],[103.74889,1.41333],[103.76214,1.42509],[103.77407,1.43252],[103.787,1.43644],[103.80099,1.44059],[103.82005,1.44905],[103.8297,1.44308],[103.83501,1.42944],[103.83298,1.41738],[103.84495,1.38176],[103.85017,1.36962],[103.84864,1.35108],[103.8468,1.34047],[103.8475,1.33263],[103.84383,1.32044],[103.83785,1.31316],[103.83181,1.30351],[103.83909,1.30026],[103.84596,1.29911],[103.85259,1.29294],[103.85146,1.28413],[103.85512,1.2758],[103.86245,1.27103]]}},{"type":"Feature","properties":{"line":"PE","color":"#5b544a"},"geometry":{"type":"LineString","coordinates":[[103.90207,1.40455],[103.90594,1.39928],[103.90893,1.39691],[103.91256,1.39391],[103.91614,1.39452],[103.91646,1.39958],[103.9127,1.40229],[103.90858,1.40523],[103.90207,1.40455]]}},{"type":"Feature","properties":{"line":"PW","color":"#5b544a"},"geometry":{"type":"LineString","coordinates":[[103.90207,1.40455],[103.90481,1.40961],[103.90656,1.41277],[103.90663,1.41685],[103.90214,1.4159],[103.90029,1.41187],[103.89854,1.40845],[103.89719,1.40509],[103.90207,1.40455]]}},{"type":"Feature","properties":{"line":"SE","color":"#5b544a"},"geometry":{"type":"LineString","coordinates":[[103.89548,1.39169],[103.90047,1.39449],[103.90595,1.39147],[103.90542,1.38809],[103.90215,1.38398],[103.89718,1.38423],[103.89548,1.39169]]}},{"type":"Feature","properties":{"line":"SW","color":"#5b544a"},"geometry":{"type":"LineString","coordinates":[[103.89548,1.39169],[103.89378,1.39628],[103.88929,1.39717],[103.88124,1.39821],[103.87562,1.39732],[103.8763,1.39189],[103.88002,1.39208],[103.88583,1.38935],[103.89052,1.38672],[103.89548,1.39169]]}},{"type":"Feature","properties":{"line":"TE","color":"#9d5b25"},"geometry":{"type":"LineString","coordinates":[[103.78569,1.44829],[103.787,1.43644],[103.79326,1.4274],[103.81786,1.39758],[103.83574,1.38551],[103.83657,1.37146],[103.83289,1.36328],[103.8329,1.35442],[103.83985,1.33746],[103.83556,1.32861],[103.8258,1.3197],[103.81896,1.30678],[103.82387,1.30242],[103.83181,1.30351],[103.83372,1.29395],[103.83359,1.28851],[103.83924,1.28082],[103.84388,1.28053],[103.85037,1.27772],[103.85512,1.2758],[103.86357,1.27455],[103.86745,1.27849],[103.86917,1.29083],[103.87345,1.29727],[103.88618,1.29783],[103.89737,1.29932],[103.90498,1.30261],[103.91511,1.30667],[103.93003,1.31001],[103.94231,1.31312],[103.94833,1.31667],[103.95694,1.32028],[103.99278,1.32444]]}}]}
