{"type":"FeatureCollection","features":[{"type":"Feature","properties":{"name":"Singapore"},"geometry":{"type":"MultiPolygon","coordinates":[[[[103.70983,1.30775],[103.70839,1.30762],[103.70847,1.30539],[103.70782,1.30486],[103.70734,1.3029],[103.70775,1.30292],[103.70778,1.30206],[103.70241,1.30184],[103.70231,1.30401],[103.69932,1.30502],[103.69693,1.30779],[103.69526,1.30795],[103.69579,1.30671],[103.69688,1.30652],[103.69938,1.30336],[103.69941,1.29953],[103.69618,1.29962],[103.69561,1.30049],[103.69529,1.30316],[103.69437,1.30491],[103.69467,1.3059],[103.69557,1.30663],[103.69506,1.30786],[103.69403,1.30661],[103.69355,1.30509],[103.69375,1.30094],[103.69097,1.29989],[103.68886,1.30003],[103.68374,1.29907],[103.68252,1.30891],[103.68133,1.30918],[103.6807,1.30843],[103.6819,1.298],[103.68012,1.29718],[103.67978,1.29758],[103.67844,1.29661],[103.67302,1.30263],[103.67272,1.30681],[103.66879,1.30632],[103.66946,1.30051],[103.67434,1.29544],[103.67399,1.29559],[103.67427,1.29512],[103.67283,1.29359],[103.66659,1.28868],[103.6652,1.29036],[103.66544,1.29073],[103.66474,1.29188],[103.65864,1.29492],[103.65902,1.29574],[103.6577,1.29679],[103.6566,1.29587],[103.65587,1.29668],[103.65682,1.2975],[103.65375,1.30103],[103.65178,1.29936],[103.64981,1.30169],[103.65749,1.31006],[103.65716,1.31111],[103.65679,1.31091],[103.65621,1.31147],[103.65088,1.30589],[103.64922,1.30543],[103.64473,1.30097],[103.64649,1.29178],[103.6498,1.28566],[103.65019,1.28352],[103.64946,1.2812],[103.64745,1.27947],[103.64568,1.27897],[103.64044,1.27908],[103.63974,1.2699],[103.64333,1.26979],[103.64336,1.26085],[103.61734,1.26085],[103.61734,1.25398],[103.64435,1.25398],[103.64435,1.24796],[103.63779,1.24503],[103.61734,1.24503],[103.61734,1.23815],[103.64984,1.23815],[103.64984,1.2292],[103.61735,1.2292],[103.61735,1.2216],[103.65692,1.22161],[103.65858,1.21717],[103.64806,1.21328],[103.64225,1.21024],[103.60901,1.21879],[103.60685,1.22017],[103.60571,1.22304],[103.6057,1.24368],[103.61243,1.24368],[103.61244,1.24639],[103.60885,1.24639],[103.60885,1.25295],[103.61199,1.25295],[103.61199,1.25566],[103.60975,1.25566],[103.60975,1.26023],[103.60571,1.26023],[103.60571,1.26113],[103.60987,1.26113],[103.60987,1.26467],[103.60676,1.26467],[103.61105,1.27633],[103.61261,1.27824],[103.61765,1.28069],[103.61909,1.28238],[103.62003,1.28449],[103.62003,1.28873],[103.61822,1.29335],[103.61751,1.29343],[103.61768,1.29448],[103.61736,1.29409],[103.61782,1.29673],[103.61799,1.29627],[103.61815,1.29716],[103.6187,1.29707],[103.62654,1.3183],[103.6246,1.31903],[103.62265,1.31405],[103.62076,1.31476],[103.62136,1.31968],[103.63234,1.33715],[103.63352,1.33738],[103.6337,1.33782],[103.63476,1.34076],[103.63432,1.34147],[103.63482,1.342],[103.63453,1.34227],[103.63571,1.34348],[103.63646,1.34585],[103.6355,1.34543],[103.63464,1.34632],[103.63413,1.34785],[103.63439,1.34957],[103.6333,1.3508],[103.63458,1.34995],[103.63565,1.35112],[103.63706,1.35168],[103.63821,1.35046],[103.64039,1.3581],[103.64067,1.35767],[103.64376,1.36074],[103.6468,1.36761],[103.64908,1.37096],[103.64935,1.37264],[103.65106,1.37317],[103.65091,1.37432],[103.6514,1.37471],[103.65271,1.37301],[103.65272,1.37465],[103.65358,1.37482],[103.655,1.37843],[103.65722,1.38226],[103.65695,1.3835],[103.65799,1.38335],[103.65746,1.38423],[103.65908,1.38573],[103.65976,1.38596],[103.65991,1.38502],[103.66023,1.38526],[103.66044,1.38599],[103.65983,1.38699],[103.6616,1.38886],[103.66161,1.39054],[103.66274,1.39252],[103.66237,1.39486],[103.66285,1.39731],[103.66205,1.39873],[103.66269,1.40026],[103.66307,1.39999],[103.66325,1.40032],[103.66273,1.40069],[103.66297,1.40146],[103.66388,1.40196],[103.66303,1.40326],[103.66249,1.40553],[103.66431,1.40631],[103.66514,1.40892],[103.66687,1.40935],[103.66805,1.40874],[103.66831,1.40956],[103.66959,1.41022],[103.6706,1.4117],[103.67058,1.41328],[103.67271,1.41379],[103.6718,1.41462],[103.67153,1.41593],[103.67216,1.41801],[103.67302,1.41777],[103.67309,1.41853],[103.67227,1.41924],[103.67393,1.42014],[103.67483,1.41925],[103.67437,1.41999],[103.67493,1.42071],[103.67414,1.42052],[103.67351,1.42201],[103.6743,1.42518],[103.67593,1.42623],[103.67691,1.42609],[103.6764,1.42631],[103.67656,1.4269],[103.67806,1.42912],[103.679,1.42853],[103.6814,1.42914],[103.68331,1.43117],[103.68583,1.42997],[103.68588,1.43153],[103.68652,1.43196],[103.68778,1.43171],[103.6886,1.43304],[103.69327,1.43355],[103.6961,1.43501],[103.7001,1.43956],[103.70255,1.44096],[103.70649,1.44482],[103.70662,1.44594],[103.70687,1.44539],[103.70734,1.44544],[103.70988,1.44778],[103.71257,1.44929],[103.71684,1.45054],[103.71748,1.45032],[103.72147,1.45131],[103.72738,1.45118],[103.72907,1.45075],[103.73141,1.44889],[103.73157,1.44815],[103.7311,1.44898],[103.73061,1.44788],[103.73128,1.44805],[103.73263,1.4471],[103.73191,1.44684],[103.73125,1.44613],[103.73276,1.44683],[103.73207,1.44622],[103.73266,1.446],[103.73267,1.44661],[103.73349,1.44622],[103.73377,1.4452],[103.73459,1.44529],[103.7379,1.44275],[103.73804,1.44209],[103.73655,1.44042],[103.7368,1.43873],[103.73717,1.43872],[103.73729,1.43978],[103.7382,1.44106],[103.73871,1.4389],[103.74226,1.43891],[103.74269,1.43928],[103.74297,1.43871],[103.74295,1.44546],[103.74382,1.44629],[103.75793,1.4434],[103.76187,1.44435],[103.76427,1.44333],[103.76706,1.44418],[103.76684,1.445],[103.76737,1.44641],[103.76897,1.44775],[103.7698,1.44924],[103.76905,1.45249],[103.76941,1.45269],[103.77086,1.44849],[103.77283,1.44995],[103.77633,1.45126],[103.78347,1.45558],[103.78568,1.45788],[103.79868,1.46684],[103.79988,1.4668],[103.80158,1.46848],[103.80304,1.46903],[103.80864,1.47057],[103.8097,1.46978],[103.81732,1.47077],[103.82143,1.46924],[103.82217,1.46864],[103.82027,1.46731],[103.81859,1.46496],[103.8194,1.46446],[103.82053,1.46615],[103.82285,1.46716],[103.82252,1.46596],[103.82339,1.46578],[103.82168,1.46272],[103.82219,1.46245],[103.82429,1.46573],[103.82228,1.46122],[103.82264,1.46102],[103.82404,1.46357],[103.82455,1.46332],[103.82754,1.46859],[103.8343,1.46471],[103.83195,1.46051],[103.8329,1.45996],[103.83527,1.46414],[103.83635,1.46417],[103.83731,1.46481],[103.85003,1.45953],[103.85819,1.45486],[103.85805,1.45382],[103.85504,1.45249],[103.85875,1.4424],[103.86337,1.43644],[103.86279,1.43597],[103.86361,1.43411],[103.86494,1.43461],[103.86536,1.43372],[103.86441,1.43176],[103.85778,1.42653],[103.86213,1.42463],[103.86427,1.42665],[103.86742,1.42498],[103.8692,1.42679],[103.86967,1.42847],[103.87137,1.4298],[103.87498,1.43172],[103.87856,1.43176],[103.88812,1.42577],[103.88655,1.42359],[103.88727,1.42317],[103.88868,1.42544],[103.89687,1.42062],[103.89783,1.41839],[103.89648,1.4153],[103.89813,1.41473],[103.89976,1.41748],[103.90385,1.42015],[103.90696,1.42002],[103.90793,1.42103],[103.91068,1.42151],[103.91258,1.42111],[103.91392,1.41851],[103.91411,1.41625],[103.91503,1.41638],[103.91555,1.41729],[103.9163,1.41723],[103.91868,1.41502],[103.91861,1.41414],[103.91911,1.41363],[103.9235,1.4112],[103.93087,1.40387],[103.93101,1.40236],[103.92981,1.4016],[103.93014,1.3997],[103.93444,1.40117],[103.93848,1.39742],[103.93859,1.39659],[103.93638,1.39432],[103.93644,1.393],[103.93757,1.39325],[103.94026,1.39541],[103.94291,1.3931],[103.94323,1.39225],[103.94265,1.38889],[103.94287,1.38768],[103.94924,1.38299],[103.95811,1.38134],[103.96476,1.38209],[103.96622,1.38061],[103.96751,1.38109],[103.96781,1.382],[103.96737,1.38322],[103.96925,1.38439],[103.9707,1.38615],[103.97277,1.38731],[103.97388,1.39051],[103.97467,1.39068],[103.97528,1.39173],[103.9766,1.39243],[103.98058,1.39271],[103.98143,1.3934],[103.98105,1.39347],[103.98269,1.39378],[103.98229,1.39366],[103.98316,1.39323],[103.98415,1.39316],[103.98422,1.39351],[103.98803,1.39313],[103.99507,1.3914],[103.99913,1.38893],[104.00616,1.37451],[104.00761,1.37348],[104.00886,1.37364],[104.0087,1.37259],[104.00682,1.37251],[104.00587,1.37005],[104.01006,1.36865],[104.01361,1.3701],[104.028,1.3637],[104.03212,1.36099],[104.03279,1.36097],[104.04135,1.35485],[104.0428,1.35293],[104.04357,1.35029],[104.04328,1.34882],[104.04201,1.34878],[104.04182,1.34956],[104.04269,1.35118],[104.04218,1.35304],[104.03786,1.35693],[104.03668,1.35705],[104.03344,1.35874],[104.03187,1.35839],[104.03133,1.35765],[104.03228,1.35688],[104.03257,1.35587],[104.02116,1.32896],[104.02076,1.32566],[104.02139,1.32432],[104.03255,1.3246],[104.03274,1.31799],[104.03355,1.31743],[104.03269,1.31618],[104.02906,1.31608],[104.02895,1.32038],[104.02266,1.32021],[104.02278,1.31592],[104.01535,1.31572],[104.01458,1.31113],[104.01318,1.30985],[104.01149,1.30946],[104.00562,1.31153],[104.00313,1.3106],[104.00059,1.31045],[103.99127,1.31422],[103.98391,1.31202],[103.9849,1.31262],[103.98521,1.3134],[103.98419,1.31666],[103.98282,1.31631],[103.9793,1.31659],[103.9767,1.31543],[103.9767,1.31617],[103.97598,1.31623],[103.97246,1.31607],[103.97113,1.31553],[103.97049,1.31589],[103.96468,1.31411],[103.96263,1.31457],[103.95575,1.3112],[103.95504,1.31162],[103.95338,1.31087],[103.95121,1.31051],[103.95059,1.31081],[103.94408,1.3092],[103.94307,1.30851],[103.94122,1.30845],[103.93981,1.3073],[103.93678,1.30621],[103.93636,1.30643],[103.93356,1.30488],[103.93219,1.3056],[103.92808,1.30365],[103.92666,1.30366],[103.92601,1.30317],[103.9252,1.30359],[103.92387,1.30281],[103.92327,1.3032],[103.91977,1.30182],[103.91749,1.3018],[103.91189,1.29917],[103.90544,1.29772],[103.89879,1.29544],[103.89569,1.29407],[103.89485,1.29322],[103.89324,1.29349],[103.89009,1.29039],[103.88869,1.29081],[103.8854,1.28776],[103.88469,1.2881],[103.88386,1.28785],[103.88028,1.28388],[103.87594,1.28079],[103.87744,1.28101],[103.87746,1.28057],[103.87612,1.28056],[103.87375,1.28219],[103.87144,1.28049],[103.87211,1.2783],[103.87125,1.2764],[103.85997,1.26779],[103.86173,1.26534],[103.86085,1.2647],[103.8591,1.26715],[103.85719,1.26584],[103.85586,1.26564],[103.85468,1.26611],[103.85261,1.26811],[103.85157,1.26811],[103.8518,1.26357],[103.85067,1.26304],[103.85207,1.26146],[103.8512,1.26073],[103.8457,1.26684],[103.84428,1.26554],[103.84673,1.26243],[103.84594,1.26154],[103.83945,1.26762],[103.83208,1.26741],[103.82412,1.26308],[103.82441,1.26019],[103.83042,1.26363],[103.83619,1.26381],[103.84248,1.25786],[103.83637,1.25481],[103.83126,1.25642],[103.8319,1.25716],[103.83113,1.25709],[103.83106,1.25744],[103.8305,1.25675],[103.8287,1.25713],[103.82856,1.25677],[103.82844,1.25667],[103.82783,1.25692],[103.82868,1.25715],[103.82588,1.25814],[103.82421,1.26012],[103.82401,1.25823],[103.82364,1.25842],[103.82368,1.26018],[103.8232,1.25864],[103.82325,1.26307],[103.81991,1.26309],[103.81986,1.26195],[103.81806,1.26196],[103.81963,1.26217],[103.81957,1.26324],[103.81576,1.26384],[103.81505,1.26441],[103.81311,1.26353],[103.81341,1.26298],[103.81131,1.26258],[103.81041,1.2631],[103.81028,1.26368],[103.81157,1.26486],[103.81215,1.26486],[103.81247,1.26425],[103.81294,1.26442],[103.81302,1.26367],[103.81494,1.26451],[103.81301,1.2662],[103.81154,1.26644],[103.81019,1.26499],[103.80859,1.265],[103.80722,1.26588],[103.80538,1.26374],[103.80514,1.2623],[103.801,1.26589],[103.8013,1.26645],[103.79921,1.2682],[103.79831,1.26663],[103.79399,1.26921],[103.78551,1.25501],[103.77857,1.25918],[103.78663,1.27279],[103.77687,1.27867],[103.77067,1.26824],[103.75024,1.28049],[103.75301,1.28527],[103.75649,1.28585],[103.76913,1.27831],[103.77229,1.28365],[103.76073,1.2906],[103.76306,1.29446],[103.75857,1.29929],[103.75536,1.29712],[103.74908,1.2965],[103.74415,1.29805],[103.74389,1.29909],[103.74483,1.30088],[103.74343,1.30132],[103.74086,1.29881],[103.72965,1.30163],[103.72761,1.30027],[103.72251,1.30276],[103.71585,1.30842],[103.7122,1.30844],[103.71263,1.30647],[103.71536,1.3059],[103.72092,1.30118],[103.7204,1.29981],[103.72273,1.29957],[103.72196,1.29948],[103.71188,1.29961],[103.71185,1.29736],[103.71134,1.29736],[103.71139,1.30724],[103.71081,1.30841],[103.70983,1.30775]],[[103.93208,1.30555],[103.93208,1.30555],[103.93208,1.30555],[103.93208,1.30555]],[[103.82361,1.26018],[103.82359,1.26022],[103.82361,1.26018],[103.82361,1.26018]],[[103.82362,1.26026],[103.82368,1.2605],[103.82364,1.2607],[103.82362,1.26026]],[[103.82364,1.26075],[103.82363,1.26073],[103.82364,1.2607],[103.82364,1.26075]],[[103.82352,1.26081],[103.82367,1.26084],[103.82353,1.26102],[103.82364,1.26301],[103.82357,1.26307],[103.82352,1.26081]],[[103.72039,1.29952],[103.72039,1.29952],[103.72039,1.29952],[103.72039,1.29952]],[[103.71188,1.29962],[103.71188,1.29962],[103.71188,1.29961],[103.71188,1.29962]],[[103.88103,1.2849],[103.88102,1.28491],[103.88092,1.28502],[103.88103,1.2849]],[[103.71185,1.30754],[103.71202,1.30896],[103.71122,1.30873],[103.71185,1.30754]],[[103.85566,1.40111],[103.85566,1.40111],[103.85567,1.40109],[103.85566,1.40111]],[[103.85558,1.39985],[103.85563,1.4],[103.85556,1.3998],[103.85558,1.39985]],[[103.82746,1.36969],[103.82751,1.36976],[103.8278,1.37013],[103.82746,1.36969]],[[103.82785,1.36826],[103.82782,1.3683],[103.8275,1.36885],[103.82785,1.36826]],[[103.91004,1.34187],[103.91004,1.34187],[103.90991,1.34175],[103.91004,1.34187]],[[103.89575,1.347],[103.89578,1.34699],[103.89577,1.34699],[103.89575,1.347]],[[103.8706,1.42544],[103.86936,1.42647],[103.86736,1.42472],[103.86996,1.42449],[103.8706,1.42544]]],[[[103.66049,1.3973],[103.66081,1.39885],[103.66133,1.39922],[103.66188,1.39741],[103.661,1.39677],[103.66049,1.3973]]],[[[103.68425,1.43413],[103.68532,1.43505],[103.68565,1.4349],[103.68527,1.43353],[103.68425,1.43413]]],[[[103.87263,1.43929],[103.87225,1.43794],[103.86935,1.43568],[103.86746,1.43534],[103.86563,1.43599],[103.86365,1.43817],[103.86172,1.44162],[103.85991,1.44298],[103.85974,1.44589],[103.85784,1.44969],[103.85763,1.45139],[103.86053,1.45275],[103.86237,1.45183],[103.86922,1.44405],[103.87263,1.43929]]]]}}]}